NORAD_CAT_ID,OBJECT_NAME,OBJECT_TYPE,EPOCH,MEAN_MOTION,ECCENTRICITY,INCLINATION,RA_OF_ASC_NODE,ARG_OF_PERICENTER,MEAN_ANOMALY,BSTAR,MEAN_MOTION_DOT,MEAN_MOTION_DDOT,TLE_LINE0,TLE_LINE1,TLE_LINE2,SEMIMAJOR_AXIS,PERIOD,APOGEE,PERIGEE,DECAYED
51979.0,STARLINK-3656,PAYLOAD,2022-09-08 22:00:00,15.08862894,0.0001369,53.2174,15.277,64.3258,289.0006,-0.0029646,-0.0004718999999999,0.0,0 STARLINK-3656,1 51979U 22025Z   22251.91667824 -.00047190  00000-0 -29646-2 0  9999,2 51979  53.2174  15.2770 0001369  64.3258 289.0006 15.08862894  1304,6917.81,95.436,540.622,538.7280000000002,0.0
51979.0,STARLINK-3656,PAYLOAD,2022-09-09 00:00:02,15.08858795,0.000137,53.2176,14.9024,68.1083,18.1837,-0.0031250999999999,-0.00049706,0.0,0 STARLINK-3656,1 51979U 22025Z   22252.00002315 -.00049706  00000-0 -31251-2 0  9998,2 51979  53.2176  14.9024 0001370  68.1083  18.1837 15.08858795 29289,6917.823,95.436,540.636,538.74,0.0
51979.0,STARLINK-3656,PAYLOAD,2022-09-09 14:00:01,15.08856506,0.0001399,53.2176,12.2846,68.6029,307.9089,-0.0024846,-0.00039631,0.0,0 STARLINK-3656,1 51979U 22025Z   22252.58334491 -.00039631  00000-0 -24846-2 0  9992,2 51979  53.2176  12.2846 0001399  68.6029 307.9089 15.08856506  1307,6917.83,95.437,540.663,538.727,0.0
51979.0,STARLINK-3656,PAYLOAD,2022-09-09 22:00:00,15.08836248,0.0001317,53.2174,10.7881,63.382,324.7278,-0.0011854,-0.00019102,0.0,0 STARLINK-3656,1 51979U 22025Z   22252.91667824 -.00019102  00000-0 -11854-2 0  9994,2 51979  53.2174  10.7881 0001317  63.3820 324.7278 15.08836248  1306,6917.892,95.438,540.668,538.846,0.0
51979.0,STARLINK-3656,PAYLOAD,2022-09-10 06:00:02,15.08816294,0.000125,53.2174,9.2903,72.8164,326.9571,0.0035985999999999,0.00057413,0.0,0 STARLINK-3656,1 51979U 22025Z   22253.25002315  .00057413  00000-0  35986-2 0  9997,2 51979  53.2174   9.2903 0001250  72.8164 326.9571 15.08816294 29473,6917.953,95.439,540.683,538.953,0.0
51979.0,STARLINK-3656,PAYLOAD,2022-09-10 14:00:01,15.08863761,0.0001389,53.2175,7.7958,65.6828,345.6116,-0.0037946,-0.00060213,0.0,0 STARLINK-3656,1 51979U 22025Z   22253.58334491 -.00060213  00000-0 -37946-2 0  9998,2 51979  53.2175   7.7958 0001389  65.6828 345.6116 15.08863761  1303,6917.808000000001,95.436,540.634,538.712,0.0
51979.0,STARLINK-3656,PAYLOAD,2022-09-10 22:00:00,15.08838571,0.000135,53.2174,6.2991,61.9947,0.8953,-0.0035181999999999,-0.00055844,0.0,0 STARLINK-3656,1 51979U 22025Z   22253.91667824 -.00055844  00000-0 -35182-2 0  9998,2 51979  53.2174   6.2991 0001350  61.9947   0.8953 15.08838571  1302,6917.885,95.438,540.684,538.816,0.0
51979.0,STARLINK-3656,PAYLOAD,2022-09-11 06:00:00,15.0879935,0.0001278,53.2175,4.8015,69.9503,4.5289,0.0033113,0.00052747,0.0,0 STARLINK-3656,1 51979U 22025Z   22254.25001157  .00052747  00000-0  33113-2 0  9996,2 51979  53.2175   4.8015 0001278  69.9503   4.5289 15.08799350 29628,6918.005,95.44,540.754,538.986,0.0
51979.0,STARLINK-3656,PAYLOAD,2022-09-11 14:00:01,15.08833519,0.0001418,53.2176,3.307,62.5261,23.5227,-9.7974e-05,-1.847e-05,0.0,0 STARLINK-3656,1 51979U 22025Z   22254.58334491 -.00001847  00000-0 -97974-4 0  9996,2 51979  53.2176   3.3070 0001418  62.5261  23.5227 15.08833519  1304,6917.9,95.438,540.746,538.784,0.0
51979.0,STARLINK-3656,PAYLOAD,2022-09-11 22:00:00,15.08866036,0.0001431999999999,53.2176,1.8103,59.5875,38.0415,-0.0036645,-0.00058179,0.0,0 STARLINK-3656,1 51979U 22025Z   22254.91667824 -.00058179  00000-0 -36645-2 0  9998,2 51979  53.2176   1.8103 0001432  59.5875  38.0415 15.08866036  1307,6917.801,95.436,540.656,538.675,0.0
51979.0,STARLINK-3656,PAYLOAD,2022-09-12 14:00:01,15.08855056,0.0001529,53.2178,358.8182,60.9064,59.9154,-0.0017669,-0.0002831,0.0,0 STARLINK-3656,1 51979U 22025Z   22255.58334491 -.00028310  00000-0 -17669-2 0  9992,2 51979  53.2178 358.8182 0001529  60.9064  59.9154 15.08855056 29834,6917.834,95.437,540.757,538.6419999999998,0.0
51979.0,STARLINK-3656,PAYLOAD,2022-09-12 22:00:00,15.088705,0.0001537,53.2179,357.3213,60.1997,72.2213,-0.0034603999999999,-0.00054986,0.0,0 STARLINK-3656,1 51979U 22025Z   22255.91667824 -.00054986  00000-0 -34604-2 0  9994,2 51979  53.2179 357.3213 0001537  60.1997  72.2213 15.08870500  1307,6917.7869999999975,95.436,540.715,538.589,0.0
51979.0,STARLINK-3656,PAYLOAD,2022-09-13 08:00:01,15.08856031,0.0001481,53.2183,355.4502,67.0903,169.8204,-0.0019582,-0.00031331,0.0,0 STARLINK-3656,1 51979U 22025Z   22256.33334491 -.00031331  00000-0 -19582-2 0  9999,2 51979  53.2183 355.4502 0001481  67.0903 169.8204 15.08856031 29949,6917.831,95.437,540.721,538.672,0.0
51979.0,STARLINK-3656,PAYLOAD,2022-09-13 14:00:01,15.08824478,0.000166,53.218,354.3239,61.0433,94.5792,-6.1157e-05,-1.261e-05,0.0,0 STARLINK-3656,1 51979U 22025Z   22256.58334491 -.00001261  00000-0 -61157-4 0  9992,2 51979  53.2180 354.3239 0001660  61.0433  94.5792 15.08824478  1308,6917.928000000001,95.439,540.941,538.644,0.0
51979.0,STARLINK-3656,PAYLOAD,2022-09-13 22:00:00,15.08845115,0.0001576999999999,53.218,352.8321,60.3401,106.8421,-0.0012819,-0.00020634,0.0,0 STARLINK-3656,1 51979U 22025Z   22256.91667824 -.00020634  00000-0 -12819-2 0  9992,2 51979  53.2180 352.8321 0001577  60.3401 106.8421 15.08845115  1304,6917.865,95.437,540.821,538.639,0.0
51979.0,STARLINK-3656,PAYLOAD,2022-09-14 06:00:00,15.08830367,0.0001459,53.2183,351.3348,66.9602,111.8118,-0.00010418,-1.945e-05,0.0,0 STARLINK-3656,1 51979U 22025Z   22257.25001157 -.00001945  00000-0 -10418-3 0  9999,2 51979  53.2183 351.3348 0001459  66.9602 111.8118 15.08830367 30083,6917.91,95.438,540.784,538.766,0.0
51979.0,STARLINK-3656,PAYLOAD,2022-09-14 14:00:01,15.08825027,0.0001516,53.2179,349.833,60.1061,130.2537,3.8812e-05,3.3e-06,0.0,0 STARLINK-3656,1 51979U 22025Z   22257.58334491  .00000330  00000-0  38812-4 0  9999,2 51979  53.2179 349.8330 0001516  60.1061 130.2537 15.08825027  1300,6917.926,95.439,540.84,538.742,0.0
51979.0,STARLINK-3656,PAYLOAD,2022-09-14 22:00:00,15.08851544,0.0001436,53.2179,348.3432,58.7948,143.1488,-0.0012364,-0.00019917,0.0,0 STARLINK-3656,1 51979U 22025Z   22257.91667824 -.00019917  00000-0 -12364-2 0  9990,2 51979  53.2179 348.3432 0001436  58.7948 143.1488 15.08851544  1306,6917.845,95.437,540.7040000000002,538.717,0.0
51979.0,STARLINK-3656,PAYLOAD,2022-09-15 14:00:01,15.08825897,0.0001404,53.2179,345.3515,54.015,171.1126,0.0016476,0.00026021,0.0,0 STARLINK-3656,1 51979U 22025Z   22258.58334491  .00026021  00000-0  16476-2 0  9995,2 51979  53.2179 345.3515 0001404  54.0150 171.1126 15.08825897  1306,6917.9230000000025,95.438,540.76,538.817,0.0
51979.0,STARLINK-3656,PAYLOAD,2022-09-15 16:11:10,15.08830289,0.0001368,53.2189,344.9413,64.986,295.1274,2.2093000000000007e-05,6.4e-07,0.0,0 STARLINK-3656,1 51979U 22025Z   22258.67442584  .00000064  00000-0  22093-4 0  9991,2 51979  53.2189 344.9413 0001368  64.9860 295.1274 15.08830289 29184,6917.91,95.438,540.721,538.8290000000002,0.0
51979.0,STARLINK-3656,PAYLOAD,2022-09-15 22:32:42,15.08837644,0.0001365999999999,53.219,343.7521,62.2275,297.8856,4.1471e-05,3.72e-06,0.0,0 STARLINK-3656,1 51979U 22025Z   22258.93938142  .00000372  00000-0  41471-4 0  9993,2 51979  53.2190 343.7521 0001366  62.2275 297.8856 15.08837644 30338,6917.888000000001,95.438,540.698,538.808,0.0
51979.0,STARLINK-3656,PAYLOAD,2022-09-16 12:51:10,15.08836848,0.0001537,53.2187,341.0735,61.1859,298.9288,3.1499e-05,2.13e-06,0.0,0 STARLINK-3656,1 51979U 22025Z   22259.53554362  .00000213  00000-0  31499-4 0  9991,2 51979  53.2187 341.0735 0001537  61.1859 298.9288 15.08836848 29310,6917.89,95.438,540.818,538.692,0.0
51979.0,STARLINK-3656,PAYLOAD,2022-09-16 16:01:57,15.0883331,0.0001521999999999,53.2193,340.4812,73.8409,286.275,8.0984e-06,-1.59e-06,0.0,0 STARLINK-3656,1 51979U 22025Z   22259.66802708 -.00000159  00000-0  80984-5 0  9999,2 51979  53.2193 340.4812 0001522  73.8409 286.2750 15.08833310 29338,6917.901,95.438,540.819,538.7130000000002,0.0
51979.0,STARLINK-3656,PAYLOAD,2022-09-17 06:20:26,15.08823641,0.0001457,53.2195,337.8053,64.583,295.5312,-7.357300000000002e-07,-3e-06,0.0,0 STARLINK-3656,1 51979U 22025Z   22260.26419624 -.00000300  00000-0 -73573-6 0  9994,2 51979  53.2195 337.8053 0001457  64.5830 295.5312 15.08823641 30536,6917.93,95.439,540.803,538.7869999999998,0.0
51979.0,STARLINK-3656,PAYLOAD,2022-09-17 12:41:59,15.08826917,0.0001595999999999,53.22,336.6165,66.7219,293.3941,2.8973e-05,1.73e-06,0.0,0 STARLINK-3656,1 51979U 22025Z   22260.52915590  .00000173  00000-0  28973-4 0  9994,2 51979  53.2200 336.6165 0001596  66.7219 293.3941 15.08826917 29466,6917.92,95.438,540.889,538.681,0.0
51979.0,STARLINK-3656,PAYLOAD,2022-09-17 22:14:17,15.08834228,0.0001564999999999,53.2195,334.8319,61.1762,298.9387,4.9469e-05,4.99e-06,0.0,0 STARLINK-3656,1 51979U 22025Z   22260.92659283  .00000499  00000-0  49469-4 0  9996,2 51979  53.2195 334.8319 0001565  61.1762 298.9387 15.08834228 30638,6917.898,95.438,540.846,538.68,0.0
51979.0,STARLINK-3656,PAYLOAD,2022-09-18 10:57:22,15.0884509,0.000215,53.22,332.4534,79.9875,280.1359,9.641e-05,1.247e-05,0.0,0 STARLINK-3656,1 51979U 22025Z   22261.45650506  .00001247  00000-0  96410-4 0  9994,2 51979  53.2200 332.4534 0002150  79.9875 280.1359 15.08845090 30711,6917.865,95.437,541.217,538.242,0.0
51979.0,STARLINK-3656,PAYLOAD,2022-09-18 12:32:45,15.0882756,0.0002569,53.2198,332.156,85.5508,274.5778,0.00034246,5.164e-05,0.0,0 STARLINK-3656,1 51979U 22025Z   22261.52274995  .00005164  00000-0  34246-3 0  9996,2 51979  53.2198 332.1560 0002569  85.5508 274.5778 15.08827560 30728,6917.918000000002,95.438,541.561,538.006,0.0
51979.0,STARLINK-3656,PAYLOAD,2022-09-19 04:26:36,15.08842699,0.0001644,53.2187,329.1814,63.5341,296.582,0.00019833,2.87e-05,0.0,0 STARLINK-3656,1 51979U 22025Z   22262.18514134  .00002870  00000-0  19833-3 0  9997,2 51979  53.2187 329.1814 0001644  63.5341 296.5820 15.08842699 30821,6917.871999999999,95.437,540.874,538.6,0.0
